{"type": "FeatureCollection", "features": [ {"type": "Feature", "properties": {"norad_id": 43107, "name": "BEIDOU-3 M7 (C27)", "group": "gnss", "lat": -45.227282153674636, "lon": -97.10721056999628, "alt_km": 21537.936451257556, "timestamp": "2025-12-10T18:57:00.309257+00:00", "meta": {"OBJECT_NAME": "BEIDOU-3 M7 (C27)", "OBJECT_ID": "2018-003A", "EPOCH": "2025-12-10T08:14:11.609952", "MEAN_MOTION": 1.86232173, "ECCENTRICITY": 0.0002608, "INCLINATION": 54.4988, "RA_OF_ASC_NODE": 308.8983, "ARG_OF_PERICENTER": 70.7786, "MEAN_ANOMALY": 289.2405, "EPHEMERIS_TYPE": 0, "CLASSIFICATION_TYPE": "U", "NORAD_CAT_ID": 43107, "ELEMENT_SET_NO": 999, "REV_AT_EPOCH": 5383, "BSTAR": 0, "MEAN_MOTION_DOT": -8.2e-07, "MEAN_MOTION_DDOT": 0}, "tle": {"line1": "1 43107U 18003A   25344.34318993 -.00000082  00000+0  00000+0 0  9994", "line2": "2 43107  54.4988 308.8983 0002608  70.7786 289.2405  1.86232173 53837"}}, "geometry": {"type": "Point", "coordinates": [-97.10721056999628, -45.227282153674636]}}, {"type": "Feature", "properties": {"norad_id": 43108, "name": "BEIDOU-3 M8 (C28)", "group": "gnss", "lat": -19.14987024184699, "lon": -65.49757678940017, "alt_km": 21524.543684621578, "timestamp": "2025-12-10T18:57:00.309282+00:00", "meta": {"OBJECT_NAME": "BEIDOU-3 M8 (C28)", "OBJECT_ID": "2018-003B", "EPOCH": "2025-12-09T05:08:23.746272", "MEAN_MOTION": 1.86230654, "ECCENTRICITY": 0.00048225, "INCLINATION": 54.4927, "RA_OF_ASC_NODE": 308.9205, "ARG_OF_PERICENTER": 273.4107, "MEAN_ANOMALY": 86.5234, "EPHEMERIS_TYPE": 0, "CLASSIFICATION_TYPE": "U", "NORAD_CAT_ID": 43108, "ELEMENT_SET_NO": 999, "REV_AT_EPOCH": 5382, "BSTAR": 0, "MEAN_MOTION_DOT": -7.7e-07, "MEAN_MOTION_DDOT": 0}, "tle": {"line1": "1 43108U 18003B   25343.21416373 -.00000077  00000+0  00000+0 0  9995", "line2": "2 43108  54.4927 308.9205 0004822 273.4107  86.5234  1.86230654 53827"}}, "geometry": {"type": "Point", "coordinates": [-65.49757678940017, -19.14987024184699]}}, {"type": "Feature", "properties": {"norad_id": 43207, "name": "BEIDOU-3 M4 (C22)", "group": "gnss", "lat": 32.39680626406884, "lon": 94.20755051287863, "alt_km": 21513.96968329379, "timestamp": "2025-12-10T18:57:00.309296+00:00", "meta": {"OBJECT_NAME": "BEIDOU-3 M4 (C22)", "OBJECT_ID": "2018-018A", "EPOCH": "2025-12-08T13:58:21.554688", "MEAN_MOTION": 1.86230863, "ECCENTRICITY": 0.00041601, "INCLINATION": 56.4826, "RA_OF_ASC_NODE": 69.4414, "ARG_OF_PERICENTER": 11.0555, "MEAN_ANOMALY": 348.9749, "EPHEMERIS_TYPE": 0, "CLASSIFICATION_TYPE": "U", "NORAD_CAT_ID": 43207, "ELEMENT_SET_NO": 999, "REV_AT_EPOCH": 5319, "BSTAR": 0, "MEAN_MOTION_DOT": -4.5e-07, "MEAN_MOTION_DDOT": 0}, "tle": {"line1": "1 43207U 18018A   25342.58219392 -.00000045  00000+0  00000+0 0  9997", "line2": "2 43207  56.4826  69.4414 0004160  11.0555 348.9749  1.86230863 53194"}}, "geometry": {"type": "Point", "coordinates": [94.20755051287863, 32.39680626406884]}}, {"type": "Feature", "properties": {"norad_id": 43208, "name": "BEIDOU-3 M3 (C21)", "group": "gnss", "lat": -3.8871689061613846, "lon": 66.8033308378121, "alt_km": 21514.552091231646, "timestamp": "2025-12-10T18:57:00.309310+00:00", "meta": {"OBJECT_NAME": "BEIDOU-3 M3 (C21)", "OBJECT_ID": "2018-018B", "EPOCH": "2025-12-10T06:13:47.825184", "MEAN_MOTION": 1.86231214, "ECCENTRICITY": 0.0006517, "INCLINATION": 56.4836, "RA_OF_ASC_NODE": 69.3901, "ARG_OF_PERICENTER": 317.1688, "MEAN_ANOMALY": 42.8026, "EPHEMERIS_TYPE": 0, "CLASSIFICATION_TYPE": "U", "NORAD_CAT_ID": 43208, "ELEMENT_SET_NO": 999, "REV_AT_EPOCH": 5322, "BSTAR": 0, "MEAN_MOTION_DOT": -5.3e-07, "MEAN_MOTION_DDOT": 0}, "tle": {"line1": "1 43208U 18018B   25344.25958131 -.00000053  00000+0  00000+0 0  9994", "line2": "2 43208  56.4836  69.3901 0006517 317.1688  42.8026  1.86231214 53224"}}, "geometry": {"type": "Point", "coordinates": [66.8033308378121, -3.8871689061613846]}}, {"type": "Feature", "properties": {"norad_id": 43245, "name": "BEIDOU-3 M9 (C29)", "group": "gnss", "lat": -24.31121906124988, "lon": 145.40916122995182, "alt_km": 21529.494380064254, "timestamp": "2025-12-10T18:57:00.309324+00:00", "meta": {"OBJECT_NAME": "BEIDOU-3 M9 (C29)", "OBJECT_ID": "2018-029A", "EPOCH": "2025-12-09T09:38:36.109248", "MEAN_MOTION": 1.86227964, "ECCENTRICITY": 0.00016746, "INCLINATION": 54.3687, "RA_OF_ASC_NODE": 306.5834, "ARG_OF_PERICENTER": 274.0787, "MEAN_ANOMALY": 85.8921, "EPHEMERIS_TYPE": 0, "CLASSIFICATION_TYPE": "U", "NORAD_CAT_ID": 43245, "ELEMENT_SET_NO": 999, "REV_AT_EPOCH": 5236, "BSTAR": 0, "MEAN_MOTION_DOT": -7.6e-07, "MEAN_MOTION_DDOT": 0}, "tle": {"line1": "1 43245U 18029A   25343.40180682 -.00000076  00000+0  00000+0 0  9996", "line2": "2 43245  54.3687 306.5834 0001674 274.0787  85.8921  1.86227964 52369"}}, "geometry": {"type": "Point", "coordinates": [145.40916122995182, -24.31121906124988]}}, {"type": "Feature", "properties": {"norad_id": 43246, "name": "BEIDOU-3 M10 (C30)", "group": "gnss", "lat": -51.30973288168183, "lon": -169.94339850421585, "alt_km": 21536.884522050837, "timestamp": "2025-12-10T18:57:00.309343+00:00", "meta": {"OBJECT_NAME": "BEIDOU-3 M10 (C30)", "OBJECT_ID": "2018-029B", "EPOCH": "2025-12-10T09:51:50.082912", "MEAN_MOTION": 1.86228788, "ECCENTRICITY": 0.0003991, "INCLINATION": 54.3654, "RA_OF_ASC_NODE": 306.5763, "ARG_OF_PERICENTER": 359.52, "MEAN_ANOMALY": 0.4707, "EPHEMERIS_TYPE": 0, "CLASSIFICATION_TYPE": "U", "NORAD_CAT_ID": 43246, "ELEMENT_SET_NO": 999, "REV_AT_EPOCH": 5236, "BSTAR": 0, "MEAN_MOTION_DOT": -8.1e-07, "MEAN_MOTION_DDOT": 0}, "tle": {"line1": "1 43246U 18029B   25344.41099633 -.00000081  00000+0  00000+0 0  9990", "line2": "2 43246  54.3654 306.5763 0003991 359.5200   0.4707  1.86228788 52368"}}, "geometry": {"type": "Point", "coordinates": [-169.94339850421585, -51.30973288168183]}}, {"type": "Feature", "properties": {"norad_id": 43286, "name": "IRNSS-1I", "group": "gnss", "lat": -8.645212576265644, "lon": 61.29727207913586, "alt_km": 35874.960170802304, "timestamp": "2025-12-10T18:57:00.309357+00:00", "meta": {"OBJECT_NAME": "IRNSS-1I", "OBJECT_ID": "2018-035A", "EPOCH": "2025-12-09T20:40:45.060960", "MEAN_MOTION": 1.0027, "ECCENTRICITY": 0.00218395, "INCLINATION": 29.1436, "RA_OF_ASC_NODE": 77.1419, "ARG_OF_PERICENTER": 181.4739, "MEAN_ANOMALY": 185.4559, "EPHEMERIS_TYPE": 0, "CLASSIFICATION_TYPE": "U", "NORAD_CAT_ID": 43286, "ELEMENT_SET_NO": 999, "REV_AT_EPOCH": 2818, "BSTAR": 0, "MEAN_MOTION_DOT": 7.9e-07, "MEAN_MOTION_DDOT": 0}, "tle": {"line1": "1 43286U 18035A   25343.86163265  .00000079  00000+0  00000+0 0  9998", "line2": "2 43286  29.1436  77.1419 0021839 181.4739 185.4559  1.00270000 28181"}}, "geometry": {"type": "Point", "coordinates": [61.29727207913586, -8.645212576265644]}}, {"type": "Feature", "properties": {"norad_id": 43508, "name": "COSMOS 2527 (756)", "group": "gnss", "lat": -65.31161151708878, "lon": -17.130874684681203, "alt_km": 19120.370588945763, "timestamp": "2025-12-10T18:57:00.309369+00:00", "meta": {"OBJECT_NAME": "COSMOS 2527 (756)", "OBJECT_ID": "2018-053A", "EPOCH": "2025-12-10T10:35:59.703936", "MEAN_MOTION": 2.13102031, "ECCENTRICITY": 0.0008586, "INCLINATION": 65.4714, "RA_OF_ASC_NODE": 80.2084, "ARG_OF_PERICENTER": 224.5475, "MEAN_ANOMALY": 135.4001, "EPHEMERIS_TYPE": 0, "CLASSIFICATION_TYPE": "U", "NORAD_CAT_ID": 43508, "ELEMENT_SET_NO": 999, "REV_AT_EPOCH": 5825, "BSTAR": 0, "MEAN_MOTION_DOT": -1.9e-07, "MEAN_MOTION_DDOT": 0}, "tle": {"line1": "1 43508U 18053A   25344.44166324 -.00000019  00000+0  00000+0 0  9994", "line2": "2 43508  65.4714  80.2084 0008586 224.5475 135.4001  2.13102031 58254"}}, "geometry": {"type": "Point", "coordinates": [-17.130874684681203, -65.31161151708878]}}, {"type": "Feature", "properties": {"norad_id": 43539, "name": "BEIDOU-2 IGSO-7 (C16)", "group": "gnss", "lat": -37.99568591306306, "lon": 131.69385963712105, "alt_km": 35697.95744791808, "timestamp": "2025-12-10T18:57:00.309393+00:00", "meta": {"OBJECT_NAME": "BEIDOU-2 IGSO-7 (C16)", "OBJECT_ID": "2018-057A", "EPOCH": "2025-12-09T10:39:54.393984", "MEAN_MOTION": 1.00258071, "ECCENTRICITY": 0.0092596, "INCLINATION": 55.1734, "RA_OF_ASC_NODE": 164.6998, "ARG_OF_PERICENTER": 235.2278, "MEAN_ANOMALY": 309.5847, "EPHEMERIS_TYPE": 0, "CLASSIFICATION_TYPE": "U", "NORAD_CAT_ID": 43539, "ELEMENT_SET_NO": 999, "REV_AT_EPOCH": 2722, "BSTAR": 0, "MEAN_MOTION_DOT": -6.9e-07, "MEAN_MOTION_DDOT": 0}, "tle": {"line1": "1 43539U 18057A   25343.44437956 -.00000069  00000+0  00000+0 0  9998", "line2": "2 43539  55.1734 164.6998 0092596 235.2278 309.5847  1.00258071 27227"}}, "geometry": {"type": "Point", "coordinates": [131.69385963712105, -37.99568591306306]}}, {"type": "Feature", "properties": {"norad_id": 43564, "name": "GSAT0221 (GALILEO 25)", "group": "gnss", "lat": 9.568869982719526, "lon": -6.896862809129948, "alt_km": 23220.785198453454, "timestamp": "2025-12-10T18:57:00.309406+00:00", "meta": {"OBJECT_NAME": "GSAT0221 (GALILEO 25)", "OBJECT_ID": "2018-060A", "EPOCH": "2025-12-09T00:16:12.119232", "MEAN_MOTION": 1.70475733, "ECCENTRICITY": 0.00067013, "INCLINATION": 57.2286, "RA_OF_ASC_NODE": 346.9182, "ARG_OF_PERICENTER": 282.1379, "MEAN_ANOMALY": 77.8037, "EPHEMERIS_TYPE": 0, "CLASSIFICATION_TYPE": "U", "NORAD_CAT_ID": 43564, "ELEMENT_SET_NO": 999, "REV_AT_EPOCH": 4592, "BSTAR": 0, "MEAN_MOTION_DOT": -8.7e-07, "MEAN_MOTION_DDOT": 0}, "tle": {"line1": "1 43564U 18060A   25343.01125138 -.00000087  00000+0  00000+0 0  9999", "line2": "2 43564  57.2286 346.9182 0006701 282.1379  77.8037  1.70475733 45922"}}, "geometry": {"type": "Point", "coordinates": [-6.896862809129948, 9.568869982719526]}}]}